[{"OBJECT_NAME":"STARLINK-3356","OBJECT_ID":"2022-005AF","EPOCH":"2026-03-09T20:43:46.373952","MEAN_MOTION":15.08834312,"ECCENTRICITY":0.00013171,"INCLINATION":53.2176,"RA_OF_ASC_NODE":298.3385,"ARG_OF_PERICENTER":89.6559,"MEAN_ANOMALY":270.4584,"EPHEMERIS_TYPE":0,"CLASSIFICATION_TYPE":"U","NORAD_CAT_ID":51133,"ELEMENT_SET_NO":999,"REV_AT_EPOCH":22875,"BSTAR":-8.75826e-6,"MEAN_MOTION_DOT":-4.27e-6,"MEAN_MOTION_DDOT":0},{"OBJECT_NAME":"CZ-6A DEB","OBJECT_ID":"2024-126C","EPOCH":"2026-03-09T22:45:09.534528","MEAN_MOTION":15.08339588,"ECCENTRICITY":0.00034995,"INCLINATION":97.8272,"RA_OF_ASC_NODE":88.0703,"ARG_OF_PERICENTER":249.9832,"MEAN_ANOMALY":110.1019,"EPHEMERIS_TYPE":0,"CLASSIFICATION_TYPE":"U","NORAD_CAT_ID":60213,"ELEMENT_SET_NO":999,"REV_AT_EPOCH":9177,"BSTAR":0.0010886629,"MEAN_MOTION_DOT":0.00016868,"MEAN_MOTION_DDOT":0}]
